KUIPER-00079            
1 64826U 25151L   25212.55889734  .00027105  00000+0  77175-3 0  9995
2 64826  51.8776 213.8543 0006084 186.4597 173.6312 15.35897202  3543
KUIPER-00080            
1 64827U 25151M   25212.62682164  .00022905  00000+0  66030-3 0  9993
2 64827  51.8776 213.5613 0005034 195.0938 164.9898 15.35611375  2353
KUIPER-00082            
1 64828U 25151N   25212.62575676  .00028155  00000+0  80592-3 0  9995
2 64828  51.8773 213.5496 0005355 189.7788 170.3095 15.35713473  2351
KUIPER-00083            
1 64829U 25151P   25212.56426400  .00015333  00000+0  45081-3 0  9997
2 64829  51.8767 213.8849 0005203 199.1792 160.8999 15.35279320  3538
KUIPER-00084            
1 64830U 25151Q   25212.58335648 -.00719914  00000+0 -24865-1 0  9997
2 64830  51.8783 213.8564 0005877 209.9729 222.9241 15.31986084  2075
KUIPER-00085            
1 64831U 25151R   25212.55920739  .00025074  00000+0  71576-3 0  9994
2 64831  51.8775 213.8561 0005880 186.2496 173.8417 15.35861890  2346
KUIPER-00086            
1 64832U 25151S   25212.56570280  .00023089  00000+0  67544-3 0  9992
2 64832  51.8769 213.8962 0005434 210.6251 149.4418 15.35144068  2342
KUIPER-00087            
1 64833U 25151T   25212.56132147  .00020091  00000+0  58141-3 0  9992
2 64833  51.8776 213.8714 0005379 186.7876 173.3038 15.35574201  2340
