<?xml version="1.0" encoding="UTF-8"?>
<ndm xmlns:xsi="http://www.w3.org/2001/XMLSchema-instance" xsi:noNamespaceSchemaLocation="https://sanaregistry.org/r/ndmxml_unqualified/ndmxml-2.0.0-master-2.0.xsd">
<omm id="CCSDS_OMM_VERS" version="2.0">
<header><CREATION_DATE/><ORIGINATOR/></header><body><segment><metadata><OBJECT_NAME>KUIPER-00079</OBJECT_NAME><OBJECT_ID>2025-151L</OBJECT_ID><CENTER_NAME>EARTH</CENTER_NAME><REF_FRAME>TEME</REF_FRAME><TIME_SYSTEM>UTC</TIME_SYSTEM><MEAN_ELEMENT_THEORY>SGP4</MEAN_ELEMENT_THEORY></metadata><data><meanElements><EPOCH>2025-07-31T13:24:48.730176</EPOCH><MEAN_MOTION>15.35897202</MEAN_MOTION><ECCENTRICITY>.0006084</ECCENTRICITY><INCLINATION>51.8776</INCLINATION><RA_OF_ASC_NODE>213.8543</RA_OF_ASC_NODE><ARG_OF_PERICENTER>186.4597</ARG_OF_PERICENTER><MEAN_ANOMALY>173.6312</MEAN_ANOMALY></meanElements><tleParameters><EPHEMERIS_TYPE>0</EPHEMERIS_TYPE><CLASSIFICATION_TYPE>U</CLASSIFICATION_TYPE><NORAD_CAT_ID>64826</NORAD_CAT_ID><ELEMENT_SET_NO>999</ELEMENT_SET_NO><REV_AT_EPOCH>354</REV_AT_EPOCH><BSTAR>.77175E-3</BSTAR><MEAN_MOTION_DOT>.27105E-3</MEAN_MOTION_DOT><MEAN_MOTION_DDOT>0</MEAN_MOTION_DDOT></tleParameters></data></segment></body></omm>
<omm id="CCSDS_OMM_VERS" version="2.0">
<header><CREATION_DATE/><ORIGINATOR/></header><body><segment><metadata><OBJECT_NAME>KUIPER-00080</OBJECT_NAME><OBJECT_ID>2025-151M</OBJECT_ID><CENTER_NAME>EARTH</CENTER_NAME><REF_FRAME>TEME</REF_FRAME><TIME_SYSTEM>UTC</TIME_SYSTEM><MEAN_ELEMENT_THEORY>SGP4</MEAN_ELEMENT_THEORY></metadata><data><meanElements><EPOCH>2025-07-31T15:02:37.389696</EPOCH><MEAN_MOTION>15.35611375</MEAN_MOTION><ECCENTRICITY>.0005034</ECCENTRICITY><INCLINATION>51.8776</INCLINATION><RA_OF_ASC_NODE>213.5613</RA_OF_ASC_NODE><ARG_OF_PERICENTER>195.0938</ARG_OF_PERICENTER><MEAN_ANOMALY>164.9898</MEAN_ANOMALY></meanElements><tleParameters><EPHEMERIS_TYPE>0</EPHEMERIS_TYPE><CLASSIFICATION_TYPE>U</CLASSIFICATION_TYPE><NORAD_CAT_ID>64827</NORAD_CAT_ID><ELEMENT_SET_NO>999</ELEMENT_SET_NO><REV_AT_EPOCH>235</REV_AT_EPOCH><BSTAR>.6603E-3</BSTAR><MEAN_MOTION_DOT>.22905E-3</MEAN_MOTION_DOT><MEAN_MOTION_DDOT>0</MEAN_MOTION_DDOT></tleParameters></data></segment></body></omm>
<omm id="CCSDS_OMM_VERS" version="2.0">
<header><CREATION_DATE/><ORIGINATOR/></header><body><segment><metadata><OBJECT_NAME>KUIPER-00082</OBJECT_NAME><OBJECT_ID>2025-151N</OBJECT_ID><CENTER_NAME>EARTH</CENTER_NAME><REF_FRAME>TEME</REF_FRAME><TIME_SYSTEM>UTC</TIME_SYSTEM><MEAN_ELEMENT_THEORY>SGP4</MEAN_ELEMENT_THEORY></metadata><data><meanElements><EPOCH>2025-07-31T15:01:05.384064</EPOCH><MEAN_MOTION>15.35713473</MEAN_MOTION><ECCENTRICITY>.0005355</ECCENTRICITY><INCLINATION>51.8773</INCLINATION><RA_OF_ASC_NODE>213.5496</RA_OF_ASC_NODE><ARG_OF_PERICENTER>189.7788</ARG_OF_PERICENTER><MEAN_ANOMALY>170.3095</MEAN_ANOMALY></meanElements><tleParameters><EPHEMERIS_TYPE>0</EPHEMERIS_TYPE><CLASSIFICATION_TYPE>U</CLASSIFICATION_TYPE><NORAD_CAT_ID>64828</NORAD_CAT_ID><ELEMENT_SET_NO>999</ELEMENT_SET_NO><REV_AT_EPOCH>235</REV_AT_EPOCH><BSTAR>.80592E-3</BSTAR><MEAN_MOTION_DOT>.28155E-3</MEAN_MOTION_DOT><MEAN_MOTION_DDOT>0</MEAN_MOTION_DDOT></tleParameters></data></segment></body></omm>
<omm id="CCSDS_OMM_VERS" version="2.0">
<header><CREATION_DATE/><ORIGINATOR/></header><body><segment><metadata><OBJECT_NAME>KUIPER-00083</OBJECT_NAME><OBJECT_ID>2025-151P</OBJECT_ID><CENTER_NAME>EARTH</CENTER_NAME><REF_FRAME>TEME</REF_FRAME><TIME_SYSTEM>UTC</TIME_SYSTEM><MEAN_ELEMENT_THEORY>SGP4</MEAN_ELEMENT_THEORY></metadata><data><meanElements><EPOCH>2025-07-31T13:32:32.409600</EPOCH><MEAN_MOTION>15.35279320</MEAN_MOTION><ECCENTRICITY>.0005203</ECCENTRICITY><INCLINATION>51.8767</INCLINATION><RA_OF_ASC_NODE>213.8849</RA_OF_ASC_NODE><ARG_OF_PERICENTER>199.1792</ARG_OF_PERICENTER><MEAN_ANOMALY>160.8999</MEAN_ANOMALY></meanElements><tleParameters><EPHEMERIS_TYPE>0</EPHEMERIS_TYPE><CLASSIFICATION_TYPE>U</CLASSIFICATION_TYPE><NORAD_CAT_ID>64829</NORAD_CAT_ID><ELEMENT_SET_NO>999</ELEMENT_SET_NO><REV_AT_EPOCH>353</REV_AT_EPOCH><BSTAR>.45081E-3</BSTAR><MEAN_MOTION_DOT>.15333E-3</MEAN_MOTION_DOT><MEAN_MOTION_DDOT>0</MEAN_MOTION_DDOT></tleParameters></data></segment></body></omm>
<omm id="CCSDS_OMM_VERS" version="2.0">
<header><CREATION_DATE/><ORIGINATOR/></header><body><segment><metadata><OBJECT_NAME>KUIPER-00084</OBJECT_NAME><OBJECT_ID>2025-151Q</OBJECT_ID><CENTER_NAME>EARTH</CENTER_NAME><REF_FRAME>TEME</REF_FRAME><TIME_SYSTEM>UTC</TIME_SYSTEM><MEAN_ELEMENT_THEORY>SGP4</MEAN_ELEMENT_THEORY></metadata><data><meanElements><EPOCH>2025-07-31T14:00:01.999872</EPOCH><MEAN_MOTION>15.31986084</MEAN_MOTION><ECCENTRICITY>.0005877</ECCENTRICITY><INCLINATION>51.8783</INCLINATION><RA_OF_ASC_NODE>213.8564</RA_OF_ASC_NODE><ARG_OF_PERICENTER>209.9729</ARG_OF_PERICENTER><MEAN_ANOMALY>222.9241</MEAN_ANOMALY></meanElements><tleParameters><EPHEMERIS_TYPE>0</EPHEMERIS_TYPE><CLASSIFICATION_TYPE>U</CLASSIFICATION_TYPE><NORAD_CAT_ID>64830</NORAD_CAT_ID><ELEMENT_SET_NO>999</ELEMENT_SET_NO><REV_AT_EPOCH>207</REV_AT_EPOCH><BSTAR>-.24865E-1</BSTAR><MEAN_MOTION_DOT>-.719914E-2</MEAN_MOTION_DOT><MEAN_MOTION_DDOT>0</MEAN_MOTION_DDOT></tleParameters></data></segment></body></omm>
<omm id="CCSDS_OMM_VERS" version="2.0">
<header><CREATION_DATE/><ORIGINATOR/></header><body><segment><metadata><OBJECT_NAME>KUIPER-00085</OBJECT_NAME><OBJECT_ID>2025-151R</OBJECT_ID><CENTER_NAME>EARTH</CENTER_NAME><REF_FRAME>TEME</REF_FRAME><TIME_SYSTEM>UTC</TIME_SYSTEM><MEAN_ELEMENT_THEORY>SGP4</MEAN_ELEMENT_THEORY></metadata><data><meanElements><EPOCH>2025-07-31T13:25:15.518496</EPOCH><MEAN_MOTION>15.35861890</MEAN_MOTION><ECCENTRICITY>.000588</ECCENTRICITY><INCLINATION>51.8775</INCLINATION><RA_OF_ASC_NODE>213.8561</RA_OF_ASC_NODE><ARG_OF_PERICENTER>186.2496</ARG_OF_PERICENTER><MEAN_ANOMALY>173.8417</MEAN_ANOMALY></meanElements><tleParameters><EPHEMERIS_TYPE>0</EPHEMERIS_TYPE><CLASSIFICATION_TYPE>U</CLASSIFICATION_TYPE><NORAD_CAT_ID>64831</NORAD_CAT_ID><ELEMENT_SET_NO>999</ELEMENT_SET_NO><REV_AT_EPOCH>234</REV_AT_EPOCH><BSTAR>.71576E-3</BSTAR><MEAN_MOTION_DOT>.25074E-3</MEAN_MOTION_DOT><MEAN_MOTION_DDOT>0</MEAN_MOTION_DDOT></tleParameters></data></segment></body></omm>
<omm id="CCSDS_OMM_VERS" version="2.0">
<header><CREATION_DATE/><ORIGINATOR/></header><body><segment><metadata><OBJECT_NAME>KUIPER-00086</OBJECT_NAME><OBJECT_ID>2025-151S</OBJECT_ID><CENTER_NAME>EARTH</CENTER_NAME><REF_FRAME>TEME</REF_FRAME><TIME_SYSTEM>UTC</TIME_SYSTEM><MEAN_ELEMENT_THEORY>SGP4</MEAN_ELEMENT_THEORY></metadata><data><meanElements><EPOCH>2025-07-31T13:34:36.721920</EPOCH><MEAN_MOTION>15.35144068</MEAN_MOTION><ECCENTRICITY>.0005434</ECCENTRICITY><INCLINATION>51.8769</INCLINATION><RA_OF_ASC_NODE>213.8962</RA_OF_ASC_NODE><ARG_OF_PERICENTER>210.6251</ARG_OF_PERICENTER><MEAN_ANOMALY>149.4418</MEAN_ANOMALY></meanElements><tleParameters><EPHEMERIS_TYPE>0</EPHEMERIS_TYPE><CLASSIFICATION_TYPE>U</CLASSIFICATION_TYPE><NORAD_CAT_ID>64832</NORAD_CAT_ID><ELEMENT_SET_NO>999</ELEMENT_SET_NO><REV_AT_EPOCH>234</REV_AT_EPOCH><BSTAR>.67544E-3</BSTAR><MEAN_MOTION_DOT>.23089E-3</MEAN_MOTION_DOT><MEAN_MOTION_DDOT>0</MEAN_MOTION_DDOT></tleParameters></data></segment></body></omm>
<omm id="CCSDS_OMM_VERS" version="2.0">
<header><CREATION_DATE/><ORIGINATOR/></header><body><segment><metadata><OBJECT_NAME>KUIPER-00087</OBJECT_NAME><OBJECT_ID>2025-151T</OBJECT_ID><CENTER_NAME>EARTH</CENTER_NAME><REF_FRAME>TEME</REF_FRAME><TIME_SYSTEM>UTC</TIME_SYSTEM><MEAN_ELEMENT_THEORY>SGP4</MEAN_ELEMENT_THEORY></metadata><data><meanElements><EPOCH>2025-07-31T13:28:18.175008</EPOCH><MEAN_MOTION>15.35574201</MEAN_MOTION><ECCENTRICITY>.0005379</ECCENTRICITY><INCLINATION>51.8776</INCLINATION><RA_OF_ASC_NODE>213.8714</RA_OF_ASC_NODE><ARG_OF_PERICENTER>186.7876</ARG_OF_PERICENTER><MEAN_ANOMALY>173.3038</MEAN_ANOMALY></meanElements><tleParameters><EPHEMERIS_TYPE>0</EPHEMERIS_TYPE><CLASSIFICATION_TYPE>U</CLASSIFICATION_TYPE><NORAD_CAT_ID>64833</NORAD_CAT_ID><ELEMENT_SET_NO>999</ELEMENT_SET_NO><REV_AT_EPOCH>234</REV_AT_EPOCH><BSTAR>.58141E-3</BSTAR><MEAN_MOTION_DOT>.20091E-3</MEAN_MOTION_DOT><MEAN_MOTION_DDOT>0</MEAN_MOTION_DDOT></tleParameters></data></segment></body></omm>

</ndm>
